NORAD_CAT_ID,OBJECT_NAME,OBJECT_TYPE,EPOCH,MEAN_MOTION,ECCENTRICITY,INCLINATION,RA_OF_ASC_NODE,ARG_OF_PERICENTER,MEAN_ANOMALY,BSTAR,MEAN_MOTION_DOT,MEAN_MOTION_DDOT,TLE_LINE0,TLE_LINE1,TLE_LINE2,SEMIMAJOR_AXIS,PERIOD,APOGEE,PERIGEE,DECAYED
53266.0,STARLINK-4058,PAYLOAD,2022-08-19 22:00:00,15.73108912,0.000291,53.2188,272.7682,16.9008,61.2541,0.00025863,0.00035694,0.0,0 STARLINK-4058,1 53266U 22086AA  22231.91667824  .00035694  00000-0  25863-3 0  9997,2 53266  53.2188 272.7682 0002910  16.9008  61.2541 15.73108912  4786,6728.155,91.538,351.978,348.06199999999984,0.0
53266.0,STARLINK-4058,PAYLOAD,2022-08-20 14:00:01,15.73146965,0.0003248,53.2183,269.4719,18.4914,237.3723,0.00062551,0.00087905,0.0,0 STARLINK-4058,1 53266U 22086AA  22232.58334491  .00087905  00000-0  62551-3 0  9999,2 53266  53.2183 269.4719 0003248  18.4914 237.3723 15.73146965  1306,6728.045999999999,91.536,352.097,347.726,0.0
53266.0,STARLINK-4058,PAYLOAD,2022-08-20 22:00:00,15.73172166,0.0003018,53.2185,267.8204,21.1765,323.5915,0.00053321,0.00074803,0.0,0 STARLINK-4058,1 53266U 22086AA  22232.91667824  .00074803  00000-0  53321-3 0  9993,2 53266  53.2185 267.8204 0003018  21.1765 323.5915 15.73172166  1302,6727.975,91.535,351.87,347.809,0.0
53266.0,STARLINK-4058,PAYLOAD,2022-08-21 06:00:00,15.73250822,0.0003131999999999,53.2187,266.1719,21.4435,52.2359,-0.00029709,-0.00042211,0.0,0 STARLINK-4058,1 53266U 22086AA  22233.25001157 -.00042211  00000-0 -29709-3 0  9995,2 53266  53.2187 266.1719 0003132  21.4435  52.2359 15.73250822  4993,6727.75,91.53,351.722,347.5080000000001,0.0
53266.0,STARLINK-4058,PAYLOAD,2022-08-21 14:00:01,15.73191724,0.0003293,53.2184,264.5237,17.8802,144.7807,0.00023573,0.00032585,0.0,0 STARLINK-4058,1 53266U 22086AA  22233.58334491  .00032585  00000-0  23573-3 0  9995,2 53266  53.2184 264.5237 0003293  17.8802 144.7807 15.73191724  1304,6727.919,91.534,351.999,347.5680000000001,0.0
53266.0,STARLINK-4058,PAYLOAD,2022-08-21 22:00:00,15.73184269,0.0003069,53.2184,262.8723,18.9293,232.668,0.00054885,0.00077077,0.0,0 STARLINK-4058,1 53266U 22086AA  22233.91667824  .00077077  00000-0  54885-3 0  9996,2 53266  53.2184 262.8723 0003069  18.9293 232.6680 15.73184269  5094,6727.94,91.534,351.87,347.74,0.0
53266.0,STARLINK-4058,PAYLOAD,2022-08-22 12:00:00,15.73232287,0.0003271,53.2179,259.9882,17.1567,300.1217,-0.00014225,-0.00020572,0.0,0 STARLINK-4058,1 53266U 22086AA  22234.50001157 -.00020572  00000-0 -14225-3 0  9997,2 53266  53.2179 259.9882 0003271  17.1567 300.1217 15.73232287  1302,6727.803000000001,91.531,351.869,347.467,0.0
53266.0,STARLINK-4058,PAYLOAD,2022-08-22 22:00:00,15.73178666,0.0002966,53.2177,257.9241,13.5017,144.9792,-1.0036e-05,-2.03e-05,0.0,0 STARLINK-4058,1 53266U 22086AA  22234.91667824 -.00002030  00000-0 -10036-4 0  9997,2 53266  53.2177 257.9241 0002966  13.5017 144.9792 15.73178666  1309,6727.956,91.534,351.81699999999995,347.825,0.0
53266.0,STARLINK-4058,PAYLOAD,2022-08-23 14:00:01,15.73190193,0.0003307,53.2176,254.6273,13.1268,323.1625,0.00031697,0.00044088,0.0,0 STARLINK-4058,1 53266U 22086AA  22235.58334491  .00044088  00000-0  31697-3 0  9994,2 53266  53.2176 254.6273 0003307  13.1268 323.1625 15.73190193  1306,6727.9230000000025,91.534,352.01300000000015,347.56300000000016,0.0
53266.0,STARLINK-4058,PAYLOAD,2022-08-23 20:00:01,15.73200342,0.0003089,53.2178,253.3887,14.287,298.7002,0.00023314,0.0003223,0.0,0 STARLINK-4058,1 53266U 22086AA  22235.83334491  .00032230  00000-0  23314-3 0  9995,2 53266  53.2178 253.3887 0003089  14.2870 298.7002 15.73200342  5390,6727.894,91.533,351.837,347.681,0.0
53266.0,STARLINK-4058,PAYLOAD,2022-08-23 22:00:01,15.73201786,0.0003051,53.2176,252.9759,14.341,50.9481,0.0002398,0.00033174,0.0,0 STARLINK-4058,1 53266U 22086AA  22235.91668981  .00033174  00000-0  23980-3 0  9995,2 53266  53.2176 252.9759 0003051  14.3410  50.9481 15.73201786  1300,6727.89,91.533,351.80800000000005,347.702,0.0
53266.0,STARLINK-4058,PAYLOAD,2022-08-24 14:00:01,15.73192139,0.0003276,53.2167,249.6791,11.8738,231.216,0.00019467,0.00026782,0.0,0 STARLINK-4058,1 53266U 22086AA  22236.58334491  .00026782  00000-0  19467-3 0  9997,2 53266  53.2167 249.6791 0003276  11.8738 231.2160 15.73192139  1302,6727.918000000002,91.534,351.987,347.579,0.0
53266.0,STARLINK-4058,PAYLOAD,2022-08-24 16:00:00,15.73209464,0.0003216,53.2168,249.2662,12.4588,342.8555,-4.8208e-05,-7.388e-05,0.0,0 STARLINK-4058,1 53266U 22086AA  22236.66667824 -.00007388  00000-0 -48208-4 0  9994,2 53266  53.2168 249.2662 0003216  12.4588 342.8555 15.73209464  5525,6727.868,91.533,351.897,347.57,0.0
53266.0,STARLINK-4058,PAYLOAD,2022-08-24 22:00:00,15.73181579,0.0003031,53.2169,248.0276,14.0685,317.9561,0.00055011,0.00077247,0.0,0 STARLINK-4058,1 53266U 22086AA  22236.91667824  .00077247  00000-0  55011-3 0  9990,2 53266  53.2169 248.0276 0003031  14.0685 317.9561 15.73181579  1303,6727.948,91.534,351.852,347.773,0.0
53266.0,STARLINK-4058,PAYLOAD,2022-08-25 14:00:01,15.73249001,0.0003294,53.2169,244.7305,11.7047,138.2403,-0.00042195,-0.00059567,0.0,0 STARLINK-4058,1 53266U 22086AA  22237.58334491 -.00059567  00000-0 -42195-3 0  9991,2 53266  53.2169 244.7305 0003294  11.7047 138.2403 15.73249001  5674,6727.755,91.53,351.837,347.404,0.0
53266.0,STARLINK-4058,PAYLOAD,2022-08-25 22:00:00,15.73183191,0.0003052,53.2169,243.0791,11.7522,227.154,0.00049008,0.00068684,0.0,0 STARLINK-4058,1 53266U 22086AA  22237.91667824  .00068684  00000-0  49008-3 0  9995,2 53266  53.2169 243.0791 0003052  11.7522 227.1540 15.73183191  1308,6727.943,91.534,351.861,347.755,0.0
53266.0,STARLINK-4058,PAYLOAD,2022-08-26 06:00:00,15.73258885,0.0003204,53.2167,241.4313,10.8624,316.9812,-0.00082113,-0.00114634,0.0,0 STARLINK-4058,1 53266U 22086AA  22238.25001157 -.00114634  00000-0 -82113-3 0  9997,2 53266  53.2167 241.4313 0003204  10.8624 316.9812 15.73258885  5777,6727.727,91.53,351.74800000000016,347.43699999999984,0.0
53266.0,STARLINK-4058,PAYLOAD,2022-08-26 14:00:01,15.73191533,0.0003272,53.2161,239.7817,9.184,47.6745,0.00010606,0.00014285,0.0,0 STARLINK-4058,1 53266U 22086AA  22238.58335648  .00014285  00000-0  10606-3 0  9995,2 53266  53.2161 239.7817 0003272   9.1840  47.6745 15.73191533  5832,6727.919,91.534,351.986,347.583,0.0
53266.0,STARLINK-4058,PAYLOAD,2022-08-26 22:00:00,15.73203771,0.0003012,53.2164,238.1306,12.8024,132.9096,2.429e-05,2.788e-05,0.0,0 STARLINK-4058,1 53266U 22086AA  22238.91667824  .00002788  00000-0  24290-4 0  9996,2 53266  53.2164 238.1306 0003012  12.8024 132.9096 15.73203771  1301,6727.884,91.533,351.776,347.723,0.0
53266.0,STARLINK-4058,PAYLOAD,2022-08-27 14:00:01,15.73200311,0.000335,53.2167,234.8332,15.9169,307.6323,7.9032e-05,0.00010485,0.0,0 STARLINK-4058,1 53266U 22086AA  22239.58334491  .00010485  00000-0  79032-4 0  9998,2 53266  53.2167 234.8332 0003350  15.9169 307.6323 15.73200311  1306,6727.894,91.533,352.01300000000015,347.505,0.0
53266.0,STARLINK-4058,PAYLOAD,2022-08-27 22:00:00,15.73190234,0.0003148999999999,53.2169,233.1821,18.8657,33.6146,0.00051015,0.0007157,0.0,0 STARLINK-4058,1 53266U 22086AA  22239.91667824  .00071570  00000-0  51015-3 0  9996,2 53266  53.2169 233.1821 0003149  18.8657  33.6146 15.73190234  1304,6727.9230000000025,91.534,351.907,347.6690000000001,0.0
53266.0,STARLINK-4058,PAYLOAD,2022-08-28 14:00:01,15.73229386,0.0003242,53.2162,229.8846,14.5372,215.8742,-8.9538e-05,-0.00013189,0.0,0 STARLINK-4058,1 53266U 22086AA  22240.58334491 -.00013189  00000-0 -89538-4 0  9998,2 53266  53.2162 229.8846 0003242  14.5372 215.8742 15.73229386  1304,6727.811,91.531,351.858,347.495,0.0
53266.0,STARLINK-4058,PAYLOAD,2022-08-28 22:00:00,15.73214228,0.0002951,53.2166,228.2334,13.2237,306.1435,-0.0003335,-0.00047205,0.0,0 STARLINK-4058,1 53266U 22086AA  22240.91667824 -.00047205  00000-0 -33350-3 0  9990,2 53266  53.2166 228.2334 0002951  13.2237 306.1435 15.73214228  1307,6727.855,91.532,351.705,347.7340000000001,0.0
53266.0,STARLINK-4058,PAYLOAD,2022-08-29 14:00:01,15.73176993,0.0003202,53.2171,224.9361,9.3755,127.7719,2.3769e-06,-2.9e-06,0.0,0 STARLINK-4058,1 53266U 22086AA  22241.58334491 -.00000290  00000-0  23769-5 0  9992,2 53266  53.2171 224.9361 0003202   9.3755 127.7719 15.73176993  1305,6727.9609999999975,91.535,351.98,347.671,0.0
53266.0,STARLINK-4058,PAYLOAD,2022-08-29 22:00:00,15.73180449,0.0002998,53.2172,223.2853,12.1307,213.9203,0.00050737,0.00071142,0.0,0 STARLINK-4058,1 53266U 22086AA  22241.91667824  .00071142  00000-0  50737-3 0  9994,2 53266  53.2172 223.2853 0002998  12.1307 213.9203 15.73180449  1307,6727.951,91.534,351.833,347.7990000000001,0.0
53266.0,STARLINK-4058,PAYLOAD,2022-08-30 14:00:01,15.73287263,0.0003176,53.2166,219.9877,11.3794,32.5402,-0.00086682,-0.00121033,0.0,0 STARLINK-4058,1 53266U 22086AA  22242.58334491 -.00121033  00000-0 -86682-3 0  9994,2 53266  53.2166 219.9877 0003176  11.3794  32.5402 15.73287263  6468,6727.646,91.528,351.648,347.375,0.0
53266.0,STARLINK-4058,PAYLOAD,2022-08-30 22:00:00,15.73173688,0.0002958,53.2169,218.3348,14.7418,118.1593,-3.0716e-05,-4.927e-05,0.0,0 STARLINK-4058,1 53266U 22086AA  22242.91667824 -.00004927  00000-0 -30716-4 0  9990,2 53266  53.2169 218.3348 0002958  14.7418 118.1593 15.73173688  1309,6727.97,91.535,351.825,347.845,0.0
53266.0,STARLINK-4058,PAYLOAD,2022-08-31 12:00:00,15.73224649,0.0002848,53.2168,215.4425,15.2025,183.2739,-0.0049715,-0.00648084,0.0,0 STARLINK-4058,1 53266U 22086AA  22243.50001157 -.00648084  00000-0 -49715-2 0  9992,2 53266  53.2168 215.4425 0002848  15.2025 183.2739 15.73224649  6607,6727.825,91.532,351.606,347.774,0.0
53266.0,STARLINK-4058,PAYLOAD,2022-08-31 14:00:01,15.73182951,0.0002828,53.2172,215.0286,10.1429,300.5369,-0.0062978999999999,-0.00804315,0.0,0 STARLINK-4058,1 53266U 22086AA  22243.58334491 -.00804315  00000-0 -62979-2 0  9998,2 53266  53.2172 215.0286 0002828  10.1429 300.5369 15.73182951  1307,6727.944,91.534,351.711,347.906,0.0
